[{"OBJECT_NAME":"YUNHAI-2 01E","OBJECT_ID":"2018-112E","EPOCH":"2026-03-09T23:43:19.223616","MEAN_MOTION":14.28966536,"ECCENTRICITY":0.0005031,"INCLINATION":50.0058,"RA_OF_ASC_NODE":227.8366,"ARG_OF_PERICENTER":19.8799,"MEAN_ANOMALY":340.2311,"EPHEMERIS_TYPE":0,"CLASSIFICATION_TYPE":"U","NORAD_CAT_ID":43913,"ELEMENT_SET_NO":999,"REV_AT_EPOCH":37497,"BSTAR":0.00013746904,"MEAN_MOTION_DOT":1.88e-6,"MEAN_MOTION_DDOT":0},{"OBJECT_NAME":"COSMOS 2251 DEB","OBJECT_ID":"1993-036BLU","EPOCH":"2026-03-03T21:07:15.587328","MEAN_MOTION":13.75579531,"ECCENTRICITY":0.0311325,"INCLINATION":73.9058,"RA_OF_ASC_NODE":138.0451,"ARG_OF_PERICENTER":116.0197,"MEAN_ANOMALY":247.3335,"EPHEMERIS_TYPE":0,"CLASSIFICATION_TYPE":"U","NORAD_CAT_ID":37491,"ELEMENT_SET_NO":999,"REV_AT_EPOCH":56862,"BSTAR":0.00096991,"MEAN_MOTION_DOT":1.311e-5,"MEAN_MOTION_DDOT":0}]
